{
  "norad_id": 48293,
  "name": "STARLINK-2550",
  "history": [
    {
      "epoch": "2026-03-28T22:17:49.341984",
      "apogee_km": 475.9432591971681,
      "perigee_km": 474.4233298222525,
      "latitude_deg": -53.089058549061534,
      "longitude_deg": 178.48815776011907,
      "semi_major_axis_km": 6853.32029450971,
      "eccentricity": 0.00011089,
      "inclination_deg": 53.1597,
      "raan_deg": 346.044,
      "arg_perigee_deg": 79.9949,
      "mean_anomaly_deg": 280.1177,
      "mean_motion_rev_day": 15.30210642
    },
    {
      "epoch": "2026-03-28T23:51:52.424928",
      "apogee_km": 475.9194518888153,
      "perigee_km": 474.42817145619574,
      "latitude_deg": -29.014388822003557,
      "longitude_deg": -175.24175007990561,
      "semi_major_axis_km": 6853.310811672505,
      "eccentricity": 0.0001088,
      "inclination_deg": 53.1597,
      "raan_deg": 345.7405,
      "arg_perigee_deg": 81.848,
      "mean_anomaly_deg": 278.2644,
      "mean_motion_rev_day": 15.30213818
    }
  ]
}